[
  {
    "OBJECT_NAME": "STARLINK-32804",
    "OBJECT_ID": "25019T",
    "EPOCH": "2025-11-11T05:30:58.234752",
    "MEAN_MOTION": 15.27612864,
    "ECCENTRICITY": 0.0002475,
    "INCLINATION": 43.0032,
    "RA_OF_ASC_NODE": 38.0137,
    "ARG_OF_PERICENTER": 281.1087,
    "MEAN_ANOMALY": 78.9486,
    "EPHEMERIS_TYPE": 0,
    "CLASSIFICATION_TYPE": "U",
    "NORAD_CAT_ID": 62846,
    "ELEMENT_SET_NO": 999,
    "REV_AT_EPOCH": 4413,
    "BSTAR": 0.0013693,
    "MEAN_MOTION_DOT": 0.0003765,
    "MEAN_MOTION_DDOT": 0.0,
    "TLE_LINE1": "1 62846U 25019T   25315.22984068  .00037650  00000+0  13693-2 0  9992",
    "TLE_LINE2": "2 62846  43.0032  38.0137 0002475 281.1087  78.9486 15.27612864 44133",
    "COMMENT": "Grouped by shell and plane from TLE"
  },
  {
    "OBJECT_NAME": "STARLINK-32781",
    "OBJECT_ID": "25019V",
    "EPOCH": "2025-11-11T07:03:16.588800",
    "MEAN_MOTION": 15.27608218,
    "ECCENTRICITY": 9.89e-05,
    "INCLINATION": 43.0027,
    "RA_OF_ASC_NODE": 37.6343,
    "ARG_OF_PERICENTER": 205.0136,
    "MEAN_ANOMALY": 155.0667,
    "EPHEMERIS_TYPE": 0,
    "CLASSIFICATION_TYPE": "U",
    "NORAD_CAT_ID": 62848,
    "ELEMENT_SET_NO": 999,
    "REV_AT_EPOCH": 4414,
    "BSTAR": 0.0021118,
    "MEAN_MOTION_DOT": 0.0005836,
    "MEAN_MOTION_DDOT": 0.0,
    "TLE_LINE1": "1 62848U 25019V   25315.29394200  .00058360  00000+0  21118-2 0  9996",
    "TLE_LINE2": "2 62848  43.0027  37.6343 0000989 205.0136 155.0667 15.27608218 44148",
    "COMMENT": "Grouped by shell and plane from TLE"
  },
  {
    "OBJECT_NAME": "STARLINK-32809",
    "OBJECT_ID": "25019W",
    "EPOCH": "2025-11-11T06:28:06.698208",
    "MEAN_MOTION": 15.27615111,
    "ECCENTRICITY": 2.18e-05,
    "INCLINATION": 42.9975,
    "RA_OF_ASC_NODE": 37.452,
    "ARG_OF_PERICENTER": 256.219,
    "MEAN_ANOMALY": 103.8637,
    "EPHEMERIS_TYPE": 0,
    "CLASSIFICATION_TYPE": "U",
    "NORAD_CAT_ID": 62849,
    "ELEMENT_SET_NO": 999,
    "REV_AT_EPOCH": 4414,
    "BSTAR": 0.0019218,
    "MEAN_MOTION_DOT": 0.00053061,
    "MEAN_MOTION_DDOT": 0.0,
    "TLE_LINE1": "1 62849U 25019W   25315.26952197  .00053061  00000+0  19218-2 0  9990",
    "TLE_LINE2": "2 62849  42.9975  37.4520 0000218 256.2190 103.8637 15.27615111 44145",
    "COMMENT": "Grouped by shell and plane from TLE"
  },
  {
    "OBJECT_NAME": "STARLINK-32946",
    "OBJECT_ID": "25048P",
    "EPOCH": "2025-11-11T06:09:48.891168",
    "MEAN_MOTION": 15.27618973,
    "ECCENTRICITY": 6.58e-05,
    "INCLINATION": 42.9929,
    "RA_OF_ASC_NODE": 38.1708,
    "ARG_OF_PERICENTER": 329.2038,
    "MEAN_ANOMALY": 30.8775,
    "EPHEMERIS_TYPE": 0,
    "CLASSIFICATION_TYPE": "U",
    "NORAD_CAT_ID": 63196,
    "ELEMENT_SET_NO": 999,
    "REV_AT_EPOCH": 3893,
    "BSTAR": 0.0021014,
    "MEAN_MOTION_DOT": 0.00058091,
    "MEAN_MOTION_DDOT": 0.0,
    "TLE_LINE1": "1 63196U 25048P   25315.25681587  .00058091  00000+0  21014-2 0  9994",
    "TLE_LINE2": "2 63196  42.9929  38.1708 0000658 329.2038  30.8775 15.27618973 38937",
    "COMMENT": "Grouped by shell and plane from TLE"
  },
  {
    "OBJECT_NAME": "STARLINK-32960",
    "OBJECT_ID": "25048Q",
    "EPOCH": "2025-11-11T05:33:29.731104",
    "MEAN_MOTION": 15.27617081,
    "ECCENTRICITY": 0.0004842,
    "INCLINATION": 43.0029,
    "RA_OF_ASC_NODE": 34.4741,
    "ARG_OF_PERICENTER": 293.1377,
    "MEAN_ANOMALY": 66.8964,
    "EPHEMERIS_TYPE": 0,
    "CLASSIFICATION_TYPE": "U",
    "NORAD_CAT_ID": 63197,
    "ELEMENT_SET_NO": 999,
    "REV_AT_EPOCH": 3897,
    "BSTAR": 0.0016469,
    "MEAN_MOTION_DOT": 0.00045399,
    "MEAN_MOTION_DDOT": 0.0,
    "TLE_LINE1": "1 63197U 25048Q   25315.23159411  .00045399  00000+0  16469-2 0  9994",
    "TLE_LINE2": "2 63197  43.0029  34.4741 0004842 293.1377  66.8964 15.27617081 38973",
    "COMMENT": "Grouped by shell and plane from TLE"
  },
  {
    "OBJECT_NAME": "STARLINK-32904",
    "OBJECT_ID": "25048R",
    "EPOCH": "2025-11-11T06:12:07.360992",
    "MEAN_MOTION": 15.27639776,
    "ECCENTRICITY": 7.9e-06,
    "INCLINATION": 42.9974,
    "RA_OF_ASC_NODE": 33.8088,
    "ARG_OF_PERICENTER": 128.2043,
    "MEAN_ANOMALY": 231.8816,
    "EPHEMERIS_TYPE": 0,
    "CLASSIFICATION_TYPE": "U",
    "NORAD_CAT_ID": 63198,
    "ELEMENT_SET_NO": 999,
    "REV_AT_EPOCH": 3898,
    "BSTAR": 0.0020116,
    "MEAN_MOTION_DOT": 0.00055612,
    "MEAN_MOTION_DDOT": 0.0,
    "TLE_LINE1": "1 63198U 25048R   25315.25841853  .00055612  00000+0  20116-2 0  9998",
    "TLE_LINE2": "2 63198  42.9974  33.8088 0000079 128.2043 231.8816 15.27639776 38980",
    "COMMENT": "Grouped by shell and plane from TLE"
  },
  {
    "OBJECT_NAME": "STARLINK-32931",
    "OBJECT_ID": "25048S",
    "EPOCH": "2025-11-11T05:13:09.380352",
    "MEAN_MOTION": 15.27594887,
    "ECCENTRICITY": 0.0001897,
    "INCLINATION": 43.0042,
    "RA_OF_ASC_NODE": 34.3613,
    "ARG_OF_PERICENTER": 241.6393,
    "MEAN_ANOMALY": 118.4268,
    "EPHEMERIS_TYPE": 0,
    "CLASSIFICATION_TYPE": "U",
    "NORAD_CAT_ID": 63199,
    "ELEMENT_SET_NO": 999,
    "REV_AT_EPOCH": 3897,
    "BSTAR": 0.0016780999999999999,
    "MEAN_MOTION_DOT": 0.00046226,
    "MEAN_MOTION_DDOT": 0.0,
    "TLE_LINE1": "1 63199U 25048S   25315.21746968  .00046226  00000+0  16781-2 0  9990",
    "TLE_LINE2": "2 63199  43.0042  34.3613 0001897 241.6393 118.4268 15.27594887 38979",
    "COMMENT": "Grouped by shell and plane from TLE"
  },
  {
    "OBJECT_NAME": "STARLINK-32934",
    "OBJECT_ID": "25048T",
    "EPOCH": "2025-11-11T06:21:23.224896",
    "MEAN_MOTION": 15.27613063,
    "ECCENTRICITY": 0.0001522,
    "INCLINATION": 42.9987,
    "RA_OF_ASC_NODE": 33.8571,
    "ARG_OF_PERICENTER": 296.1039,
    "MEAN_ANOMALY": 63.9656,
    "EPHEMERIS_TYPE": 0,
    "CLASSIFICATION_TYPE": "U",
    "NORAD_CAT_ID": 63200,
    "ELEMENT_SET_NO": 999,
    "REV_AT_EPOCH": 3898,
    "BSTAR": 0.00168,
    "MEAN_MOTION_DOT": 0.00046306,
    "MEAN_MOTION_DDOT": 0.0,
    "TLE_LINE1": "1 63200U 25048T   25315.26485214  .00046306  00000+0  16800-2 0  9993",
    "TLE_LINE2": "2 63200  42.9987  33.8571 0001522 296.1039  63.9656 15.27613063 38986",
    "COMMENT": "Grouped by shell and plane from TLE"
  },
  {
    "OBJECT_NAME": "STARLINK-32938",
    "OBJECT_ID": "25048U",
    "EPOCH": "2025-11-11T06:52:50.638944",
    "MEAN_MOTION": 15.2761656,
    "ECCENTRICITY": 0.0001923,
    "INCLINATION": 43.0038,
    "RA_OF_ASC_NODE": 34.0214,
    "ARG_OF_PERICENTER": 284.8261,
    "MEAN_ANOMALY": 75.2378,
    "EPHEMERIS_TYPE": 0,
    "CLASSIFICATION_TYPE": "U",
    "NORAD_CAT_ID": 63201,
    "ELEMENT_SET_NO": 999,
    "REV_AT_EPOCH": 3898,
    "BSTAR": 0.0019139,
    "MEAN_MOTION_DOT": 0.00052841,
    "MEAN_MOTION_DDOT": 0.0,
    "TLE_LINE1": "1 63201U 25048U   25315.28669721  .00052841  00000+0  19139-2 0  9992",
    "TLE_LINE2": "2 63201  43.0038  34.0214 0001923 284.8261  75.2378 15.27616560 38981",
    "COMMENT": "Grouped by shell and plane from TLE"
  },
  {
    "OBJECT_NAME": "STARLINK-32935",
    "OBJECT_ID": "25048V",
    "EPOCH": "2025-11-11T05:50:08.643840",
    "MEAN_MOTION": 15.276214,
    "ECCENTRICITY": 0.0002579,
    "INCLINATION": 42.998,
    "RA_OF_ASC_NODE": 34.5591,
    "ARG_OF_PERICENTER": 283.4438,
    "MEAN_ANOMALY": 76.6126,
    "EPHEMERIS_TYPE": 0,
    "CLASSIFICATION_TYPE": "U",
    "NORAD_CAT_ID": 63202,
    "ELEMENT_SET_NO": 999,
    "REV_AT_EPOCH": 3897,
    "BSTAR": 0.0022206,
    "MEAN_MOTION_DOT": 0.00061435,
    "MEAN_MOTION_DDOT": 0.0,
    "TLE_LINE1": "1 63202U 25048V   25315.24315560  .00061435  00000+0  22206-2 0  9996",
    "TLE_LINE2": "2 63202  42.9980  34.5591 0002579 283.4438  76.6126 15.27621400 38972",
    "COMMENT": "Grouped by shell and plane from TLE"
  },
  {
    "OBJECT_NAME": "STARLINK-32930",
    "OBJECT_ID": "25048W",
    "EPOCH": "2025-11-11T05:44:35.596896",
    "MEAN_MOTION": 15.27618692,
    "ECCENTRICITY": 0.0001069,
    "INCLINATION": 42.9953,
    "RA_OF_ASC_NODE": 34.5243,
    "ARG_OF_PERICENTER": 304.3837,
    "MEAN_ANOMALY": 55.6914,
    "EPHEMERIS_TYPE": 0,
    "CLASSIFICATION_TYPE": "U",
    "NORAD_CAT_ID": 63203,
    "ELEMENT_SET_NO": 999,
    "REV_AT_EPOCH": 3897,
    "BSTAR": 0.0020017,
    "MEAN_MOTION_DOT": 0.00055298,
    "MEAN_MOTION_DDOT": 0.0,
    "TLE_LINE1": "1 63203U 25048W   25315.23930089  .00055298  00000+0  20017-2 0  9993",
    "TLE_LINE2": "2 63203  42.9953  34.5243 0001069 304.3837  55.6914 15.27618692 38977",
    "COMMENT": "Grouped by shell and plane from TLE"
  },
  {
    "OBJECT_NAME": "STARLINK-34053",
    "OBJECT_ID": "25093B",
    "EPOCH": "2025-11-10T13:43:56.670816",
    "MEAN_MOTION": 15.27602549,
    "ECCENTRICITY": 0.000131,
    "INCLINATION": 43.0008,
    "RA_OF_ASC_NODE": 30.7098,
    "ARG_OF_PERICENTER": 257.1285,
    "MEAN_ANOMALY": 102.942,
    "EPHEMERIS_TYPE": 0,
    "CLASSIFICATION_TYPE": "U",
    "NORAD_CAT_ID": 63837,
    "ELEMENT_SET_NO": 999,
    "REV_AT_EPOCH": 2969,
    "BSTAR": 0.0014302000000000002,
    "MEAN_MOTION_DOT": 0.00039331,
    "MEAN_MOTION_DDOT": 0.0,
    "TLE_LINE1": "1 63837U 25093B   25314.57218369  .00039331  00000+0  14302-2 0  9992",
    "TLE_LINE2": "2 63837  43.0008  30.7098 0001310 257.1285 102.9420 15.27602549 29691",
    "COMMENT": "Grouped by shell and plane from TLE"
  },
  {
    "OBJECT_NAME": "STARLINK-34899",
    "OBJECT_ID": "25189A",
    "EPOCH": "2025-11-11T05:59:29.680512",
    "MEAN_MOTION": 15.30237512,
    "ECCENTRICITY": 0.0001069,
    "INCLINATION": 53.1615,
    "RA_OF_ASC_NODE": 36.8313,
    "ARG_OF_PERICENTER": 59.8044,
    "MEAN_ANOMALY": 300.3063,
    "EPHEMERIS_TYPE": 0,
    "CLASSIFICATION_TYPE": "U",
    "NORAD_CAT_ID": 65323,
    "ELEMENT_SET_NO": 999,
    "REV_AT_EPOCH": 1297,
    "BSTAR": 0.0018611,
    "MEAN_MOTION_DOT": 0.00055237,
    "MEAN_MOTION_DDOT": 0.0,
    "TLE_LINE1": "1 65323U 25189A   25315.24964908  .00055237  00000+0  18611-2 0  9992",
    "TLE_LINE2": "2 65323  53.1615  36.8313 0001069  59.8044 300.3063 15.30237512 12975",
    "COMMENT": "Grouped by shell and plane from TLE"
  }
]